[{"OBJECT_NAME":"ONEWEB-0704","OBJECT_ID":"2024-188R","EPOCH":"2025-08-18T22:08:51.854496","MEAN_MOTION":13.10373815,"ECCENTRICITY":7.16e-5,"INCLINATION":87.8794,"RA_OF_ASC_NODE":96.4917,"ARG_OF_PERICENTER":81.1094,"MEAN_ANOMALY":279.0115,"EPHEMERIS_TYPE":0,"CLASSIFICATION_TYPE":"U","NORAD_CAT_ID":61609,"ELEMENT_SET_NO":999,"REV_AT_EPOCH":4370,"BSTAR":0.0019299,"MEAN_MOTION_DOT":6.86e-6,"MEAN_MOTION_DDOT":0},{"OBJECT_NAME":"ONEWEB-0705","OBJECT_ID":"2024-188S","EPOCH":"2025-08-18T22:16:02.282016","MEAN_MOTION":13.1037343,"ECCENTRICITY":0.000143,"INCLINATION":87.8769,"RA_OF_ASC_NODE":96.529,"ARG_OF_PERICENTER":125.3085,"MEAN_ANOMALY":234.8176,"EPHEMERIS_TYPE":0,"CLASSIFICATION_TYPE":"U","NORAD_CAT_ID":61610,"ELEMENT_SET_NO":999,"REV_AT_EPOCH":3587,"BSTAR":0.0019167,"MEAN_MOTION_DOT":6.82e-6,"MEAN_MOTION_DDOT":0},{"OBJECT_NAME":"ONEWEB-0706","OBJECT_ID":"2024-188T","EPOCH":"2025-08-18T21:54:30.548448","MEAN_MOTION":13.10376591,"ECCENTRICITY":0.0001121,"INCLINATION":87.8775,"RA_OF_ASC_NODE":96.5596,"ARG_OF_PERICENTER":91.2136,"MEAN_ANOMALY":268.912,"EPHEMERIS_TYPE":0,"CLASSIFICATION_TYPE":"U","NORAD_CAT_ID":61611,"ELEMENT_SET_NO":999,"REV_AT_EPOCH":4190,"BSTAR":0.0010367,"MEAN_MOTION_DOT":3.75e-6,"MEAN_MOTION_DDOT":0},{"OBJECT_NAME":"ONEWEB-0707","OBJECT_ID":"2024-188U","EPOCH":"2025-08-18T22:04:03.245664","MEAN_MOTION":13.10377973,"ECCENTRICITY":0.0001105,"INCLINATION":87.8773,"RA_OF_ASC_NODE":96.5238,"ARG_OF_PERICENTER":85.7645,"MEAN_ANOMALY":274.3609,"EPHEMERIS_TYPE":0,"CLASSIFICATION_TYPE":"U","NORAD_CAT_ID":61612,"ELEMENT_SET_NO":999,"REV_AT_EPOCH":4373,"BSTAR":0.001728,"MEAN_MOTION_DOT":6.16e-6,"MEAN_MOTION_DDOT":0},{"OBJECT_NAME":"ONEWEB-0708","OBJECT_ID":"2024-188V","EPOCH":"2025-08-18T15:10:33.319776","MEAN_MOTION":13.10370584,"ECCENTRICITY":0.0001271,"INCLINATION":87.88,"RA_OF_ASC_NODE":96.6167,"ARG_OF_PERICENTER":107.5363,"MEAN_ANOMALY":252.5903,"EPHEMERIS_TYPE":0,"CLASSIFICATION_TYPE":"U","NORAD_CAT_ID":61613,"ELEMENT_SET_NO":999,"REV_AT_EPOCH":4367,"BSTAR":0.00077395,"MEAN_MOTION_DOT":2.83e-6,"MEAN_MOTION_DDOT":0}]
