ONEWEB-0704             
1 61609U 24188R   25230.92282239  .00000686  00000+0  19299-2 0  9995
2 61609  87.8794  96.4917 0000716  81.1094 279.0115 13.10373815 43701
ONEWEB-0705             
1 61610U 24188S   25230.92780419  .00000682  00000+0  19167-2 0  9990
2 61610  87.8769  96.5290 0001430 125.3085 234.8176 13.10373430 35873
ONEWEB-0706             
1 61611U 24188T   25230.91285357  .00000375  00000+0  10367-2 0  9993
2 61611  87.8775  96.5596 0001121  91.2136 268.9120 13.10376591 41904
ONEWEB-0707             
1 61612U 24188U   25230.91948201  .00000616  00000+0  17280-2 0  9997
2 61612  87.8773  96.5238 0001105  85.7645 274.3609 13.10377973 43732
ONEWEB-0708             
1 61613U 24188V   25230.63233009  .00000283  00000+0  77395-3 0  9994
2 61613  87.8800  96.6167 0001271 107.5363 252.5903 13.10370584 43679
